STARLINK-31076          
1 58736U 24005J   26068.80585591 -.00007828  00000+0 -28151-3 0  9999
2 58736  43.0014 218.9048 0000960 250.7068 109.3680 15.26848336120509
TOMORROW-S4             
1 62386U 24247K   26068.53305366  .00012677  00000+0  46927-3 0  9990
2 62386  44.9818 117.9996 0004434 210.4078 149.6548 15.27717249 67702
